{
  "type": "FeatureCollection",
  "features": [
    {
      "type": "Feature",
      "properties": {
        "norad_id": 39617,
        "name": "ASTRA 5B (EGNOS/PRN 123)",
        "group": "gnss",
        "lat": 0.004245212337503203,
        "lon": 6.0413204889576235,
        "alt_km": 35786.014552901404,
        "timestamp": "2025-12-21T16:47:54.980222+00:00",
        "meta_object_name": "ASTRA 5B (EGNOS/PRN 123)",
        "meta_object_id": "2014-011B",
        "meta_epoch": "2025-12-21T11:35:41.961984",
        "meta_mean_motion": 1.00269907,
        "meta_eccentricity": 0.0004448,
        "meta_inclination": 0.0431,
        "meta_ra_of_asc_node": 2.8777,
        "meta_arg_of_pericenter": 274.9368,
        "meta_mean_anomaly": 9.9173,
        "meta_ephemeris_type": 0,
        "meta_classification_type": "U",
        "meta_norad_cat_id": 39617,
        "meta_element_set_no": 999,
        "meta_rev_at_epoch": 4288,
        "meta_bstar": 0,
        "meta_mean_motion_dot": 1.59e-06,
        "meta_mean_motion_ddot": 0,
        "tle_line1": "1 39617U 14011B   25355.48312456  .00000159  00000+0  00000+0 0  9999",
        "tle_line2": "2 39617   0.0431   2.8777 0004448 274.9368   9.9173  1.00269907 42881"
      },
      "geometry": {
        "type": "Point",
        "coordinates": [
          6.0413204889576235,
          0.004245212337503203
        ]
      }
    },
    {
      "type": "Feature",
      "properties": {
        "norad_id": 39620,
        "name": "COSMOS 2492 (754)",
        "group": "gnss",
        "lat": 16.44411704834755,
        "lon": 132.18300096614723,
        "alt_km": 19159.943914118136,
        "timestamp": "2025-12-21T16:47:54.980234+00:00",
        "meta_object_name": "COSMOS 2492 (754)",
        "meta_object_id": "2014-012A",
        "meta_epoch": "2025-12-21T00:28:06.027744",
        "meta_mean_motion": 2.13103414,
        "meta_eccentricity": 0.0014234,
        "meta_inclination": 65.403,
        "meta_ra_of_asc_node": 319.9894,
        "meta_arg_of_pericenter": 312.8453,
        "meta_mean_anomaly": 47.0277,
        "meta_ephemeris_type": 0,
        "meta_classification_type": "U",
        "meta_norad_cat_id": 39620,
        "meta_element_set_no": 999,
        "meta_rev_at_epoch": 9144,
        "meta_bstar": 0,
        "meta_mean_motion_dot": -4.8e-07,
        "meta_mean_motion_ddot": 0,
        "tle_line1": "1 39620U 14012A   25355.01951421 -.00000048  00000+0  00000+0 0  9992",
        "tle_line2": "2 39620  65.4030 319.9894 0014234 312.8453  47.0277  2.13103414 91447"
      },
      "geometry": {
        "type": "Point",
        "coordinates": [
          132.18300096614723,
          16.44411704834755
        ]
      }
    },
    {
      "type": "Feature",
      "properties": {
        "norad_id": 39635,
        "name": "IRNSS-1B",
        "group": "gnss",
        "lat": 12.337673922095028,
        "lon": 40.53745665307036,
        "alt_km": 35791.69029888824,
        "timestamp": "2025-12-21T16:47:54.980245+00:00",
        "meta_object_name": "IRNSS-1B",
        "meta_object_id": "2014-017A",
        "meta_epoch": "2025-12-20T18:37:43.503744",
        "meta_mean_motion": 1.00271109,
        "meta_eccentricity": 0.00186822,
        "meta_inclination": 29.2525,
        "meta_ra_of_asc_node": 243.4669,
        "meta_arg_of_pericenter": 249.4131,
        "meta_mean_anomaly": 291.5281,
        "meta_ephemeris_type": 0,
        "meta_classification_type": "U",
        "meta_norad_cat_id": 39635,
        "meta_element_set_no": 999,
        "meta_rev_at_epoch": 4300,
        "meta_bstar": 0,
        "meta_mean_motion_dot": 1.52e-06,
        "meta_mean_motion_ddot": 0,
        "tle_line1": "1 39635U 14017A   25354.77619796  .00000152  00000+0  00000+0 0  9996",
        "tle_line2": "2 39635  29.2525 243.4669 0018682 249.4131 291.5281  1.00271109 43002"
      },
      "geometry": {
        "type": "Point",
        "coordinates": [
          40.53745665307036,
          12.337673922095028
        ]
      }
    },
    {
      "type": "Feature",
      "properties": {
        "norad_id": 39727,
        "name": "LUCH 5V (SDCM/PRN 141)",
        "group": "gnss",
        "lat": 0.49213752246145903,
        "lon": 77.1921753545372,
        "alt_km": 35798.87397865804,
        "timestamp": "2025-12-21T16:47:54.980257+00:00",
        "meta_object_name": "LUCH 5V (SDCM/PRN 141)",
        "meta_object_id": "2014-023A",
        "meta_epoch": "2025-12-21T12:28:51.528576",
        "meta_mean_motion": 1.00275874,
        "meta_eccentricity": 0.00037,
        "meta_inclination": 4.6909,
        "meta_ra_of_asc_node": 71.4668,
        "meta_arg_of_pericenter": 212.8079,
        "meta_mean_anomaly": 87.9784,
        "meta_ephemeris_type": 0,
        "meta_classification_type": "U",
        "meta_norad_cat_id": 39727,
        "meta_element_set_no": 999,
        "meta_rev_at_epoch": 4257,
        "meta_bstar": 0,
        "meta_mean_motion_dot": -2.5e-06,
        "meta_mean_motion_ddot": 0,
        "tle_line1": "1 39727U 14023A   25355.52004084 -.00000250  00000+0  00000+0 0  9997",
        "tle_line2": "2 39727   4.6909  71.4668 0003700 212.8079  87.9784  1.00275874 42574"
      },
      "geometry": {
        "type": "Point",
        "coordinates": [
          77.1921753545372,
          0.49213752246145903
        ]
      }
    },
    {
      "type": "Feature",
      "properties": {
        "norad_id": 39741,
        "name": "GPS BIIF-6  (PRN 06)",
        "group": "gnss",
        "lat": 11.090671055005563,
        "lon": 150.97858201524454,
        "alt_km": 20273.85238160074,
        "timestamp": "2025-12-21T16:47:54.980268+00:00",
        "meta_object_name": "GPS BIIF-6  (PRN 06)",
        "meta_object_id": "2014-026A",
        "meta_epoch": "2025-12-18T23:24:45.525888",
        "meta_mean_motion": 2.00561009,
        "meta_eccentricity": 0.00393411,
        "meta_inclination": 56.5812,
        "meta_ra_of_asc_node": 338.5339,
        "meta_arg_of_pericenter": 319.0443,
        "meta_mean_anomaly": 40.6665,
        "meta_ephemeris_type": 0,
        "meta_classification_type": "U",
        "meta_norad_cat_id": 39741,
        "meta_element_set_no": 999,
        "meta_rev_at_epoch": 8492,
        "meta_bstar": 0,
        "meta_mean_motion_dot": -8.1e-07,
        "meta_mean_motion_ddot": 0,
        "tle_line1": "1 39741U 14026A   25352.97552692 -.00000081  00000+0  00000+0 0  9997",
        "tle_line2": "2 39741  56.5812 338.5339 0039341 319.0443  40.6665  2.00561009 84924"
      },
      "geometry": {
        "type": "Point",
        "coordinates": [
          150.97858201524454,
          11.090671055005563
        ]
      }
    },
    {
      "type": "Feature",
      "properties": {
        "norad_id": 40001,
        "name": "COSMOS 2500 (755)",
        "group": "gnss",
        "lat": 26.97539959630559,
        "lon": -26.774186914088755,
        "alt_km": 19145.964358779238,
        "timestamp": "2025-12-21T16:47:54.980279+00:00",
        "meta_object_name": "COSMOS 2500 (755)",
        "meta_object_id": "2014-032A",
        "meta_epoch": "2025-12-21T04:35:55.026240",
        "meta_mean_motion": 2.13106227,
        "meta_eccentricity": 0.000773,
        "meta_inclination": 65.3386,
        "meta_ra_of_asc_node": 319.7453,
        "meta_arg_of_pericenter": 219.3736,
        "meta_mean_anomaly": 140.5635,
        "meta_ephemeris_type": 0,
        "meta_classification_type": "U",
        "meta_norad_cat_id": 40001,
        "meta_element_set_no": 999,
        "meta_rev_at_epoch": 8966,
        "meta_bstar": 0,
        "meta_mean_motion_dot": -4.7e-07,
        "meta_mean_motion_ddot": 0,
        "tle_line1": "1 40001U 14032A   25355.19160910 -.00000047  00000+0  00000+0 0  9992",
        "tle_line2": "2 40001  65.3386 319.7453 0007730 219.3736 140.5635  2.13106227 89665"
      },
      "geometry": {
        "type": "Point",
        "coordinates": [
          -26.774186914088755,
          26.97539959630559
        ]
      }
    },
    {
      "type": "Feature",
      "properties": {
        "norad_id": 40105,
        "name": "GPS BIIF-7  (PRN 09)",
        "group": "gnss",
        "lat": 52.67355379741993,
        "lon": -149.8967911568486,
        "alt_km": 20092.22919008803,
        "timestamp": "2025-12-21T16:47:54.980292+00:00",
        "meta_object_name": "GPS BIIF-7  (PRN 09)",
        "meta_object_id": "2014-045A",
        "meta_epoch": "2025-12-21T01:21:54.489888",
        "meta_mean_motion": 2.00573117,
        "meta_eccentricity": 0.0032455,
        "meta_inclination": 55.2339,
        "meta_ra_of_asc_node": 95.5671,
        "meta_arg_of_pericenter": 120.1188,
        "meta_mean_anomaly": 240.1998,
        "meta_ephemeris_type": 0,
        "meta_classification_type": "U",
        "meta_norad_cat_id": 40105,
        "meta_element_set_no": 999,
        "meta_rev_at_epoch": 8250,
        "meta_bstar": 0,
        "meta_mean_motion_dot": -1.2e-07,
        "meta_mean_motion_ddot": 0,
        "tle_line1": "1 40105U 14045A   25355.05688067 -.00000012  00000+0  00000+0 0  9996",
        "tle_line2": "2 40105  55.2339  95.5671 0032455 120.1188 240.1998  2.00573117 82506"
      },
      "geometry": {
        "type": "Point",
        "coordinates": [
          -149.8967911568486,
          52.67355379741993
        ]
      }
    }
  ]
}